{
    "links": {
        "self": "http://www.neowsapp.com/rest/v1/neo/3826670?api_key=iIulBulltgU6a56xZRHN4H3l9WmuAYTsLGpBGhQ2"
    },
    "id": "3826670",
    "neo_reference_id": "3826670",
    "name": "(2018 PF9)",
    "designation": "2018 PF9",
    "nasa_jpl_url": "http://ssd.jpl.nasa.gov/sbdb.cgi?sstr=3826670",
    "absolute_magnitude_h": 25.2,
    "estimated_diameter": {
        "kilometers": {
            "estimated_diameter_min": 0.0242412481,
            "estimated_diameter_max": 0.0542050786
        },
        "meters": {
            "estimated_diameter_min": 24.2412481101,
            "estimated_diameter_max": 54.2050786336
        },
        "miles": {
            "estimated_diameter_min": 0.0150628086,
            "estimated_diameter_max": 0.0336814639
        },
        "feet": {
            "estimated_diameter_min": 79.5316564495,
            "estimated_diameter_max": 177.8381901842
        }
    },
    "is_potentially_hazardous_asteroid": false,
    "close_approach_data": [
        {
            "close_approach_date": "2018-08-06",
            "close_approach_date_full": "2018-Aug-06 08:05",
            "epoch_date_close_approach": 1533542700000,
            "relative_velocity": {
                "kilometers_per_second": "5.2247484039",
                "kilometers_per_hour": "18809.0942539904",
                "miles_per_hour": "11687.2397046531"
            },
            "miss_distance": {
                "astronomical": "0.1140576748",
                "lunar": "44.3684354972",
                "kilometers": "17062785.207232676",
                "miles": "10602323.0915198888"
            },
            "orbiting_body": "Earth"
        },
        {
            "close_approach_date": "2183-09-13",
            "close_approach_date_full": "2183-Sep-13 10:03",
            "epoch_date_close_approach": 6743728980000,
            "relative_velocity": {
                "kilometers_per_second": "15.5036322448",
                "kilometers_per_hour": "55813.0760811569",
                "miles_per_hour": "34680.0749683166"
            },
            "miss_distance": {
                "astronomical": "0.4516341383",
                "lunar": "175.6856797987",
                "kilometers": "67563505.108965421",
                "miles": "41982015.3427919698"
            },
            "orbiting_body": "Earth"
        }
    ],
    "orbital_data": {
        "orbit_id": "4",
        "orbit_determination_date": "2018-09-13 07:05:33",
        "first_observation_date": "2018-08-05",
        "last_observation_date": "2018-09-13",
        "data_arc_in_days": 39,
        "observations_used": 35,
        "orbit_uncertainty": "7",
        "minimum_orbit_intersection": ".113925",
        "jupiter_tisserand_invariant": "3.398",
        "epoch_osculation": "2459000.5",
        "eccentricity": ".5121350098631587",
        "semi_major_axis": "2.307681466730383",
        "inclination": "2.03152944173253",
        "ascending_node_longitude": "101.6802061077525",
        "orbital_period": "1280.448807990858",
        "perihelion_distance": "1.12583699600539",
        "perihelion_argument": "213.6031965061832",
        "aphelion_distance": "3.489525937455376",
        "perihelion_time": "2459619.292819019836",
        "mean_anomaly": "186.0255205386301",
        "mean_motion": ".2811514195283395",
        "equinox": "J2000",
        "orbit_class": {
            "orbit_class_type": "AMO",
            "orbit_class_description": "Near-Earth asteroid orbits similar to that of 1221 Amor",
            "orbit_class_range": "1.017 AU < q (perihelion) < 1.3 AU"
        }
    },
    "is_sentry_object": false
}